*******************************************************************************
Ephemeris / WWW_USER Wed Jun 10 10:48:08 2020 Pasadena, USA      / Horizons
*******************************************************************************
Target body name: Moon (301)                      {source: DE431mx}
Center body name: Earth (399)                     {source: DE431mx}
Center-site name: BODY CENTER
*******************************************************************************
Start time      : A.D. 2000-Jul-09 00:00:00.0000 TDB
Stop  time      : A.D. 2024-Jul-09 00:00:00.0000 TDB
Step-size       : 1440 minutes
*******************************************************************************
Center geodetic : 0.00000000,0.00000000,0.0000000 {E-lon(deg),Lat(deg),Alt(km)}
Center cylindric: 0.00000000,0.00000000,0.0000000 {E-lon(deg),Dxy(km),Dz(km)}
Center radii    : 6378.1 x 6378.1 x 6356.8 km     {Equator, meridian, pole}    
Keplerian GM    : 8.9970113901998714E-10 au^3/d^2
Output units    : AU-D, deg, Julian Day Number (Tp)
Output type     : GEOMETRIC osculating elements
Output format   : 10
EOP file        : eop.200609.p200831
EOP coverage    : DATA-BASED 1962-JAN-20 TO 2020-JUN-09. PREDICTS-> 2020-AUG-30
Reference frame : Ecliptic of J2000.0
*******************************************************************************
            JDTDB,            Calendar Date (TDB),                     EC,                     QR,                     IN,                     OM,                      W,                     Tp,                      N,                     MA,                     TA,                      A,                     AD,                     PR,
**************************************************************************************************************************************************************************************************************************************************************************************************************************************************
$$SOE
2452608.500000000, A.D. 2002-Nov-30 00:00:00.0000,  5.193330200240164E-02,  2.419476414376107E-03,  5.291507979023638E+00,  6.866009542531725E+01,  1.591883569654977E+02,  2.452611188971195E+06,  1.333054839384798E+01,  3.241545393509325E+02,  3.204789878771184E+02,  2.552010759882461E-03,  2.684545105388816E-03,  2.700564068062940E+01,
2452609.500000000, A.D. 2002-Dec-01 00:00:00.0000,  5.501194420883204E-02,  2.420833227646133E-03,  5.291573613997899E+00,  6.865908319383608E+01,  1.570832460134993E+02,  2.452611043990657E+06,  1.325451798839471E+01,  3.395351480625433E+02,  3.371804465672250E+02,  2.561760662275620E-03,  2.702688096905106E-03,  2.716055010941974E+01,
2452610.500000000, A.D. 2002-Dec-02 00:00:00.0000,  5.832565604111045E-02,  2.421676995633916E-03,  5.291479155662659E+00,  6.865980984924229E+01,  1.551560864102279E+02,  2.452610912671571E+06,  1.317797108836958E+01,  3.545618259745347E+02,  3.538790245469407E+02,  2.571671418224003E-03,  2.721665840814091E-03,  2.731831763675088E+01,
2452611.500000000, A.D. 2002-Dec-03 00:00:00.0000,  6.128582738783104E-02,  2.421505819101307E-03,  5.291076722261812E+00,  6.866162162513045E+01,  1.534710479727303E+02,  2.452610799496444E+06,  1.311727290930378E+01,  9.188696318664579E+00,  1.040147227125071E+01,  2.579598657132191E-03,  2.737691495163075E-03,  2.744472898361826E+01,
2452612.500000000, A.D. 2002-Dec-04 00:00:00.0000,  6.342831310351367E-02,  2.419910091117395E-03,  5.290282617729500E+00,  6.866285552458281E+01,  1.517797042346571E+02,  2.452610687561651E+06,  1.308532334319678E+01,  2.371634183659647E+01,  2.686616500432513E+01,  2.583795906895542E-03,  2.747681722673690E-03,  2.751173895807232E+01,
2452613.500000000, A.D. 2002-Dec-05 00:00:00.0000,  6.463218676819715E-02,  2.416399965317216E-03,  5.289122032342903E+00,  6.866146122196221E+01,  1.497318223235098E+02,  2.452610553212802E+06,  1.308856904768703E+01,  3.856922770217066E+01,  4.349108012779818E+01,  2.583368735950275E-03,  2.750337506583335E-03,  2.750491659465386E+01,
2452614.500000000, A.D. 2002-Dec-06 00:00:00.0000,  6.515392461151069E-02,  2.410483708655769E-03,  5.287733669373827E+00,  6.865579721075922E+01,  1.470874282959086E+02,  2.452610380846865E+06,  1.312579539925290E+01,  5.406716127356047E+01,  6.040226864201468E+01,  2.578481925651831E-03,  2.746480142647893E-03,  2.742690930718686E+01,
2452615.500000000, A.D. 2002-Dec-07 00:00:00.0000,  6.546202368999553E-02,  2.401994489566980E-03,  5.286333087318480E+00,  6.864532419037261E+01,  1.438729852755600E+02,  2.452610173386387E+06,  1.318891862910460E+01,  7.025227351407764E+01,  7.749363130585124E+01,  2.570248133790329E-03,  2.738501778013678E-03,  2.729564190392161E+01,
2452616.500000000, A.D. 2002-Dec-08 00:00:00.0000,  6.595285565275756E-02,  2.391511047724187E-03,  5.285147546007674E+00,  6.863097024241408E+01,  1.404138362751291E+02,  2.452609953336302E+06,  1.326527861023652E+01,  8.684331791707112E+01,  9.440190465441981E+01,  2.560375096907438E-03,  2.729239146090690E-03,  2.713851782368114E+01,
2452617.500000000, A.D. 2002-Dec-09 00:00:00.0000,  6.671295663505067E-02,  2.380566374845215E-03,  5.284342979225866E+00,  6.861506097218538E+01,  1.371901409977311E+02,  2.452609751262214E+06,  1.334056367508266E+01,  1.033725298386318E+02,  1.106496013267899E+02,  2.550733337368669E-03,  2.720900299892122E-03,  2.698536649335166E+01,
2452618.500000000, A.D. 2002-Dec-10 00:00:00.0000,  6.747833059089017E-02,  2.371391047551720E-03,  5.283964144631184E+00,  6.860083998800478E+01,  1.345974699064392E+02,  2.452609588759928E+06,  1.340156145723139E+01,  1.194245314859587E+02,  1.258775451591687E+02,  2.542987605911986E-03,  2.714584164272252E-03,  2.686254143958325E+01,
2452619.500000000, A.D. 2002-Dec-11 00:00:00.0000,  6.779134545577710E-02,  2.366279609886450E-03,  5.283903763203747E+00,  6.859171040111909E+01,  1.327900903918637E+02,  2.452609469044686E+06,  1.343823932354867E+01,  1.347983781492033E+02,  1.399924091634969E+02,  2.538358336786066E-03,  2.710437063685681E-03,  2.678922374668156E+01,
2452620.500000000, A.D. 2002-Dec-12 00:00:00.0000,  6.722117840970408E-02,  2.366935097515472E-03,  5.283908232074580E+00,  6.859038689813644E+01,  1.316819745339061E+02,  2.452609379424640E+06,  1.344498304229781E+01,  1.495159471394459E+02,  1.531567330300106E+02,  2.537509474625594E-03,  2.708083851735715E-03,  2.677578683940641E+01,
2452621.500000000, A.D. 2002-Dec-13 00:00:00.0000,  6.552539433967100E-02,  2.374057885297474E-03,  5.283618684130635E+00,  6.859815627322311E+01,  1.310366726622695E+02,  2.452609299492147E+06,  1.342103681266181E+01,  1.637434650255748E+02,  1.656914260923223E+02,  2.540526913109522E-03,  2.706995940921570E-03,  2.682356102774154E+01,
2452622.500000000, A.D. 2002-Dec-14 00:00:00.0000,  6.271577951750611E-02,  2.387218468113070E-03,  5.282638671427383E+00,  6.861440857931781E+01,  1.305636850180474E+02,  2.452609208832962E+06,  1.337027923559805E+01,  1.777066146647586E+02,  1.779732550028303E+02,  2.546952584867140E-03,  2.706686701621210E-03,  2.692539128438758E+01,
2452623.500000000, A.D. 2002-Dec-15 00:00:00.0000,  5.904331743169471E-02,  2.404949258983603E-03,  5.280614883221324E+00,  6.863653640001830E+01,  1.299980425161294E+02,  2.452636159622514E+06,  1.330048069656498E+01,  1.916209351316561E+02,  1.903502557467896E+02,  2.555855443227617E-03,  2.706761627471630E-03,  2.706669091237992E+01,
2452624.500000000, A.D. 2002-Dec-16 00:00:00.0000,  5.492328284389686E-02,  2.425007977117548E-03,  5.277315581172049E+00,  6.866022617718163E+01,  1.291784361399165E+02,  2.452636175771401E+06,  1.322216603051919E+01,  2.056210119962118E+02,  2.030593284774195E+02,  2.565937699126491E-03,  2.706867421135433E-03,  2.722700646543492E+01,
2452625.500000000, A.D. 2002-Dec-17 00:00:00.0000,  5.081548847526537E-02,  2.444799668475072E-03,  5.272692434688553E+00,  6.868010059033288E+01,  1.281352680909827E+02,  2.452636173286189E+06,  1.314718623564943E+01,  2.196763187298740E+02,  2.161344342905390E+02,  2.575684325640583E-03,  2.706568982806093E-03,  2.738228496557211E+01,
2452626.500000000, A.D. 2002-Dec-18 00:00:00.0000,  4.708361853734193E-02,  2.461918245081061E-03,  5.266914152855229E+00,  6.869062271602533E+01,  1.271590188806794E+02,  2.452636164253960E+06,  1.308710288413842E+01,  2.335229141283518E+02,  2.293350817407425E+02,  2.583561677575733E-03,  2.705205110070404E-03,  2.750799800285214E+01,
2452627.500000000, A.D. 2002-Dec-19 00:00:00.0000,  4.388625938240472E-02,  2.474667113174603E-03,  5.260363767421393E+00,  6.868713801751937E+01,  1.267737266898767E+02,  2.452636182045347E+06,  1.305151499615870E+01,  2.466861549528029E+02,  2.421706587318874E+02,  2.588255986757505E-03,  2.701844860340407E-03,  2.758300473975277E+01,
2452628.500000000, A.D. 2002-Dec-20 00:00:00.0000,  4.116666893225523E-02,  2.482341295726222E-03,  5.253595318650919E+00,  6.866690026566548E+01,  1.275703454206970E+02,  2.452636269130231E+06,  1.304650584631473E+01,  2.586399970203492E+02,  2.540663438038515E+02,  2.588918444211693E-03,  2.695495592697166E-03,  2.759359511586696E+01,
2452629.500000000, A.D. 2002-Dec-21 00:00:00.0000,  3.875798308624016E-02,  2.485158011462675E-03,  5.247250571006558E+00,  6.862989744589883E+01,  1.299754308230673E+02,  2.452636458519552E+06,  1.307343992811462E+01,  2.690282126466552E+02,  2.645955848666256E+02,  2.585361405072285E-03,  2.685564798681895E-03,  2.753674640947519E+01,
2452630.500000000, A.D. 2002-Dec-22 00:00:00.0000,  3.653152210205027E-02,  2.483961264078883E-03,  5.241943164690834E+00,  6.857927210694983E+01,  1.340852583148661E+02,  2.452636759826562E+06,  1.312836989243154E+01,  2.778186814345429E+02,  2.736491621821649E+02,  2.578144818498135E-03,  2.672328372917386E-03,  2.742153084881762E+01,
